{
  "norad_id": 53162,
  "name": "STARLINK-4114",
  "history": [
    {
      "epoch": "2026-03-28T09:25:59.405952",
      "apogee_km": 540.7148654823759,
      "perigee_km": 538.6970690456847,
      "latitude_deg": 49.75510845196107,
      "longitude_deg": -106.06732672010548,
      "semi_major_axis_km": 6917.8429672640295,
      "eccentricity": 0.00014584,
      "inclination_deg": 53.2172,
      "raan_deg": 80.1676,
      "arg_perigee_deg": 80.6204,
      "mean_anomaly_deg": 279.4953,
      "mean_motion_rev_day": 15.08852243
    },
    {
      "epoch": "2026-03-29T04:30:37.029312",
      "apogee_km": 540.6336009240622,
      "perigee_km": 538.8017530056022,
      "latitude_deg": 52.036212005953246,
      "longitude_deg": -29.7588563200552,
      "semi_major_axis_km": 6917.854676964832,
      "eccentricity": 0.0001324,
      "inclination_deg": 53.2163,
      "raan_deg": 76.5988,
      "arg_perigee_deg": 77.2264,
      "mean_anomaly_deg": 282.8876,
      "mean_motion_rev_day": 15.08848412
    }
  ]
}